EUTELSAT 9B             
1 41310U 16005A   26087.54635338  .00000042  00000+0  00000+0 0  9995
2 41310   0.0600  66.0588 0004148 272.5990  52.9633  1.00272596 37304
EUTELSAT 65 WEST A      
1 41382U 16014A   26087.53179331 -.00000296  00000+0  00000+0 0  9991
2 41382   0.0754 313.3499 0002278  41.6499 317.1750  1.00273463 36717
EUTELSAT 117 WEST B     
1 41589U 16038B   26087.49975324 -.00000031  00000+0  00000+0 0  9994
2 41589   0.0184  34.5664 0000182  73.4450 140.8203  1.00271898 35859
EUTELSAT 172B           
1 42741U 17029B   26087.58030692 -.00000026  00000+0  00000+0 0  9990
2 42741   0.0185 161.5887 0000219 104.1534 301.1377  1.00271795 32931
EUTELSAT 7C             
1 44334U 19034B   26087.33219985  .00000029  00000+0  00000+0 0  9997
2 44334   0.0655 177.4284 0003419 172.4468 322.4673  1.00271154  6024
EUTELSAT 5 WEST B       
1 44624U 19067A   26087.32985984 -.00000062  00000+0  00000+0 0  9991
2 44624   0.0662 354.0584 0003254  16.3147 289.1044  1.00271247 23626
EUTELSAT KONNECT        
1 45027U 20005B   26087.33228652  .00000030  00000+0  00000+0 0  9990
2 45027   0.0694  96.1230 0001655 221.4602 354.9899  1.00270335 23524
EUTELSAT QUANTUM        
1 49056U 21069B   26087.55424007  .00000106  00000+0  00000+0 0  9997
2 49056   0.0409  47.6743 0002339 315.8090  69.6913  1.00273111 17113
EUTELSAT KONNECT VHTS   
1 53765U 22110A   26087.33133318 -.00000003  00000+0  00000+0 0  9992
2 53765   0.0592 103.1293 0002914 233.3842 331.1887  1.00270043  6020
EUTELSAT HOTBIRD 13F    
1 54048U 22134A   26087.54722005  .00000067  00000+0  00000+0 0  9992
2 54048   0.0560 287.2777 0001996  69.6321  39.0357  1.00271838 12567
EUTELSAT HOTBIRD 13G    
1 54225U 22146A   26087.54722005  .00000067  00000+0  00000+0 0  9992
2 54225   0.0449 231.9983 0001892 316.4317 207.5102  1.00270369  6659
EUTELSAT 10B            
1 54259U 22157A   26087.54670005  .00000048  00000+0  00000+0 0  9992
2 54259   0.0601  98.6240 0001021  33.4210 260.6896  1.00266778 12210
EUTELSAT 36D            
1 59346U 24059A   26087.55181340  .00000136  00000+0  00000+0 0  9995
2 59346   0.0041  90.6063 0000231 271.1166  58.7351  1.00270674  7337
