[{"OBJECT_NAME":"EUTELSAT 9B","OBJECT_ID":"2016-005A","EPOCH":"2026-03-28T13:06:44.932032","MEAN_MOTION":1.00272596,"ECCENTRICITY":0.00041486,"INCLINATION":0.06,"RA_OF_ASC_NODE":66.0588,"ARG_OF_PERICENTER":272.599,"MEAN_ANOMALY":52.9633,"EPHEMERIS_TYPE":0,"CLASSIFICATION_TYPE":"U","NORAD_CAT_ID":41310,"ELEMENT_SET_NO":999,"REV_AT_EPOCH":3730,"BSTAR":0,"MEAN_MOTION_DOT":4.2e-7,"MEAN_MOTION_DDOT":0},{"OBJECT_NAME":"EUTELSAT 65 WEST A","OBJECT_ID":"2016-014A","EPOCH":"2026-03-28T12:45:46.941984","MEAN_MOTION":1.00273463,"ECCENTRICITY":0.00022789,"INCLINATION":0.0754,"RA_OF_ASC_NODE":313.3499,"ARG_OF_PERICENTER":41.6499,"MEAN_ANOMALY":317.175,"EPHEMERIS_TYPE":0,"CLASSIFICATION_TYPE":"U","NORAD_CAT_ID":41382,"ELEMENT_SET_NO":999,"REV_AT_EPOCH":3671,"BSTAR":0,"MEAN_MOTION_DOT":-2.96e-6,"MEAN_MOTION_DDOT":0},{"OBJECT_NAME":"EUTELSAT 117 WEST B","OBJECT_ID":"2016-038B","EPOCH":"2026-03-28T11:59:38.679936","MEAN_MOTION":1.00271898,"ECCENTRICITY":1.82e-5,"INCLINATION":0.0184,"RA_OF_ASC_NODE":34.5664,"ARG_OF_PERICENTER":73.445,"MEAN_ANOMALY":140.8203,"EPHEMERIS_TYPE":0,"CLASSIFICATION_TYPE":"U","NORAD_CAT_ID":41589,"ELEMENT_SET_NO":999,"REV_AT_EPOCH":3585,"BSTAR":0,"MEAN_MOTION_DOT":-3.1e-7,"MEAN_MOTION_DDOT":0},{"OBJECT_NAME":"EUTELSAT 172B","OBJECT_ID":"2017-029B","EPOCH":"2026-03-28T13:55:38.517888","MEAN_MOTION":1.00271795,"ECCENTRICITY":2.193e-5,"INCLINATION":0.0185,"RA_OF_ASC_NODE":161.5887,"ARG_OF_PERICENTER":104.1534,"MEAN_ANOMALY":301.1377,"EPHEMERIS_TYPE":0,"CLASSIFICATION_TYPE":"U","NORAD_CAT_ID":42741,"ELEMENT_SET_NO":999,"REV_AT_EPOCH":3293,"BSTAR":0,"MEAN_MOTION_DOT":-2.6e-7,"MEAN_MOTION_DDOT":0},{"OBJECT_NAME":"EUTELSAT 7C","OBJECT_ID":"2019-034B","EPOCH":"2026-03-28T07:58:22.067040","MEAN_MOTION":1.00271154,"ECCENTRICITY":0.0003419,"INCLINATION":0.0655,"RA_OF_ASC_NODE":177.4284,"ARG_OF_PERICENTER":172.4468,"MEAN_ANOMALY":322.4673,"EPHEMERIS_TYPE":0,"CLASSIFICATION_TYPE":"U","NORAD_CAT_ID":44334,"ELEMENT_SET_NO":999,"REV_AT_EPOCH":602,"BSTAR":0,"MEAN_MOTION_DOT":2.9e-7,"MEAN_MOTION_DDOT":0},{"OBJECT_NAME":"EUTELSAT 5 WEST B","OBJECT_ID":"2019-067A","EPOCH":"2026-03-28T07:54:59.890176","MEAN_MOTION":1.00271247,"ECCENTRICITY":0.00032544,"INCLINATION":0.0662,"RA_OF_ASC_NODE":354.0584,"ARG_OF_PERICENTER":16.3147,"MEAN_ANOMALY":289.1044,"EPHEMERIS_TYPE":0,"CLASSIFICATION_TYPE":"U","NORAD_CAT_ID":44624,"ELEMENT_SET_NO":999,"REV_AT_EPOCH":2362,"BSTAR":0,"MEAN_MOTION_DOT":-6.2e-7,"MEAN_MOTION_DDOT":0},{"OBJECT_NAME":"EUTELSAT KONNECT","OBJECT_ID":"2020-005B","EPOCH":"2026-03-28T07:58:29.555328","MEAN_MOTION":1.00270335,"ECCENTRICITY":0.00016558,"INCLINATION":0.0694,"RA_OF_ASC_NODE":96.123,"ARG_OF_PERICENTER":221.4602,"MEAN_ANOMALY":354.9899,"EPHEMERIS_TYPE":0,"CLASSIFICATION_TYPE":"U","NORAD_CAT_ID":45027,"ELEMENT_SET_NO":999,"REV_AT_EPOCH":2352,"BSTAR":0,"MEAN_MOTION_DOT":3.0e-7,"MEAN_MOTION_DDOT":0},{"OBJECT_NAME":"EUTELSAT QUANTUM","OBJECT_ID":"2021-069B","EPOCH":"2026-03-28T13:18:06.342048","MEAN_MOTION":1.00273111,"ECCENTRICITY":0.00023391,"INCLINATION":0.0409,"RA_OF_ASC_NODE":47.6743,"ARG_OF_PERICENTER":315.809,"MEAN_ANOMALY":69.6913,"EPHEMERIS_TYPE":0,"CLASSIFICATION_TYPE":"U","NORAD_CAT_ID":49056,"ELEMENT_SET_NO":999,"REV_AT_EPOCH":1711,"BSTAR":0,"MEAN_MOTION_DOT":1.06e-6,"MEAN_MOTION_DDOT":0},{"OBJECT_NAME":"EUTELSAT KONNECT VHTS","OBJECT_ID":"2022-110A","EPOCH":"2026-03-28T07:57:07.186752","MEAN_MOTION":1.00270043,"ECCENTRICITY":0.00029142,"INCLINATION":0.0592,"RA_OF_ASC_NODE":103.1293,"ARG_OF_PERICENTER":233.3842,"MEAN_ANOMALY":331.1887,"EPHEMERIS_TYPE":0,"CLASSIFICATION_TYPE":"U","NORAD_CAT_ID":53765,"ELEMENT_SET_NO":999,"REV_AT_EPOCH":602,"BSTAR":0,"MEAN_MOTION_DOT":-3.0e-8,"MEAN_MOTION_DDOT":0},{"OBJECT_NAME":"EUTELSAT HOTBIRD 13F","OBJECT_ID":"2022-134A","EPOCH":"2026-03-28T13:07:59.812320","MEAN_MOTION":1.00271838,"ECCENTRICITY":0.00019962,"INCLINATION":0.056,"RA_OF_ASC_NODE":287.2777,"ARG_OF_PERICENTER":69.6321,"MEAN_ANOMALY":39.0357,"EPHEMERIS_TYPE":0,"CLASSIFICATION_TYPE":"U","NORAD_CAT_ID":54048,"ELEMENT_SET_NO":999,"REV_AT_EPOCH":1256,"BSTAR":0,"MEAN_MOTION_DOT":6.7e-7,"MEAN_MOTION_DDOT":0},{"OBJECT_NAME":"EUTELSAT HOTBIRD 13G","OBJECT_ID":"2022-146A","EPOCH":"2026-03-28T13:07:59.812320","MEAN_MOTION":1.00270369,"ECCENTRICITY":0.00018928,"INCLINATION":0.0449,"RA_OF_ASC_NODE":231.9983,"ARG_OF_PERICENTER":316.4317,"MEAN_ANOMALY":207.5102,"EPHEMERIS_TYPE":0,"CLASSIFICATION_TYPE":"U","NORAD_CAT_ID":54225,"ELEMENT_SET_NO":999,"REV_AT_EPOCH":665,"BSTAR":0,"MEAN_MOTION_DOT":6.7e-7,"MEAN_MOTION_DDOT":0},{"OBJECT_NAME":"EUTELSAT 10B","OBJECT_ID":"2022-157A","EPOCH":"2026-03-28T13:07:14.884320","MEAN_MOTION":1.00266778,"ECCENTRICITY":0.00010213,"INCLINATION":0.0601,"RA_OF_ASC_NODE":98.624,"ARG_OF_PERICENTER":33.421,"MEAN_ANOMALY":260.6896,"EPHEMERIS_TYPE":0,"CLASSIFICATION_TYPE":"U","NORAD_CAT_ID":54259,"ELEMENT_SET_NO":999,"REV_AT_EPOCH":1221,"BSTAR":0,"MEAN_MOTION_DOT":4.8e-7,"MEAN_MOTION_DDOT":0},{"OBJECT_NAME":"EUTELSAT 36D","OBJECT_ID":"2024-059A","EPOCH":"2026-03-28T13:14:36.677760","MEAN_MOTION":1.00270674,"ECCENTRICITY":2.315e-5,"INCLINATION":0.0041,"RA_OF_ASC_NODE":90.6063,"ARG_OF_PERICENTER":271.1166,"MEAN_ANOMALY":58.7351,"EPHEMERIS_TYPE":0,"CLASSIFICATION_TYPE":"U","NORAD_CAT_ID":59346,"ELEMENT_SET_NO":999,"REV_AT_EPOCH":733,"BSTAR":0,"MEAN_MOTION_DOT":1.36e-6,"MEAN_MOTION_DDOT":0}]
